LEMUR-2-HUBBLE-4        
1 64565U 25135AP  26191.25090494  .00001080  00000+0  10748-3 0  9995
2 64565  97.7714 304.8882 0002273 176.7097 183.4138 14.93675738 57314
LEMUR-2-SEJONG-2        
1 64586U 25135BL  26191.83643478  .00002096  00000+0  18773-3 0  9992
2 64586  97.7702 306.7002 0003584 239.1639 120.9230 14.96891823 57486
LEMUR-2-HUBBLE-5        
1 64840U 25135BT  26190.25698740  .00001340  00000+0  13040-3 0  9995
2 64840  97.7734 304.5681 0004115 260.6132  99.4623 14.94201118 57207
LEMUR-2-KARENDARRELL    
1 64841U 25135BU  26189.86116779  .00004672  00000+0  37564-3 0  9996
2 64841  97.7693 306.0385 0011750 124.4354 235.7982 15.00440878 57261
LEMUR-2-LUCILLE-ROSE    
1 65403U 25135BV  26191.56848681  .00004297  00000+0  34557-3 0  9997
2 65403  97.7711 307.7797 0014275 203.3364 156.7213 15.00454746 52145
LEMUR-2-AFFIE-WAUWIE    
1 66295U 25248C   26191.46663470  .00015199  00000+0  55347-3 0  9995
2 66295  45.3904 348.7732 0008592 227.3081 132.7085 15.28120694 38157
OTTER SDM               
1 66678U 25276N   26190.17264076  .00004363  00000+0  20565-3 0  9992
2 66678  97.4202 263.2859 0004240 282.7766  77.2995 15.20009823 33759
LEMUR-2-STAS-GORBUK     
1 66686U 25276W   26191.50946469  .00003457  00000+0  16544-3 0  9997
2 66686  97.4241 264.6532 0003441 272.2364  87.8477 15.19628304 33957
LEMUR-2-TEODOR          
1 66768U 25276DG  26191.13875512  .00004087  00000+0  18579-3 0  9997
2 66768  97.4142 264.5538 0002300  92.7088 267.4411 15.21303330 33938
LEMUR-2-LAILA           
1 66776U 25276DQ  26189.72822619  .00003860  00000+0  17456-3 0  9999
2 66776  97.4166 263.2996 0002898 104.2252 255.9306 15.21517643 33727
LEMUR-2-CELIJO-SB-PK    
1 66781U 25276DW  26189.71530559  .00004042  00000+0  32738-3 0  9996
2 66781  97.5199 259.7831 0007336  80.2189 279.9863 15.00241883 25858
LEMUR-2-FINNIAN         
1 66782U 25276DX  26191.02067963  .00001985  00000+0  16176-3 0  9999
2 66782  97.5341 261.2995 0007909  19.7735 340.3794 15.00579499 23421
LEMUR-2-STARLIGHT       
1 66783U 25276DY  26191.13038764  .00004687  00000+0  38743-3 0  9995
2 66783  97.5230 260.9845 0014771  62.0755 298.1962 14.99316422 33630
LEMUR-2-TARTIFLETTE     
1 66784U 25276DZ  26190.12764786  .00003426  00000+0  28474-3 0  9994
2 66784  97.5229 260.0239 0013793  72.8301 287.4432 14.99294218 33480
LEMUR-2-VUKASIN         
1 66785U 25276EA  26191.43660917  .00003477  00000+0  28036-3 0  9991
2 66785  97.5242 261.6384 0003790  68.8123 291.3506 15.00520064 33634
LEMUR-2-HOTSPUR-TOM     
1 66786U 25276EB  26191.59002265  .00003572  00000+0  29732-3 0  9995
2 66786  97.5222 261.4122 0013855  59.8577 300.4018 14.99212666 33630
